IRIDIUM 7               
1 24793U 97020B   25132.56811399  .00000363  00000+0  11851-3 0  9998
2 24793  86.4010 191.8219 0002100  99.2135 260.9300 14.35916289466788
IRIDIUM 5               
1 24795U 97020D   25132.61469533  .00003808  00000+0  31590-3 0  9994
2 24795  86.3863 100.1341 0106561 265.9559  92.9484 14.94108068480158
IRIDIUM 4               
1 24796U 97020E   25132.57393530  .00000350  00000+0  11196-3 0  9992
2 24796  86.4005 188.7240 0002188  92.8692 267.2756 14.36820705467354
IRIDIUM 914             
1 24836U 97030A   25132.53754111  .00000438  00000+0  13065-3 0  9994
2 24836  86.3986 197.4407 0002151  51.9471 308.1922 14.40844489601999
IRIDIUM 16              
1 24841U 97030F   25132.51364072  .00000440  00000+0  13707-3 0  9997
2 24841  86.4074 220.2476 0003264 139.0859 221.0585 14.38689104461876
IRIDIUM 911             
1 24842U 97030G   25132.51813984  .00000591  00000+0  15502-3 0  9991
2 24842  86.4499 219.0532 0013148 208.1788 151.8705 14.47604162469927
IRIDIUM 17              
1 24870U 97034B   25132.61808288  .00000502  00000+0  16019-3 0  9994
2 24870  86.3958 249.7030 0003648 111.2753 248.8834 14.37799513458472
IRIDIUM 920             
1 24871U 97034C   25132.54396389  .00000456  00000+0  13429-3 0  9991
2 24871  86.4004 229.0423 0011241 188.3736 171.7279 14.41505636461441
